[
    {
        "CCSDS_OMM_VERS": "3.0",
        "COMMENT": "GENERATED VIA SPACE-TRACK.ORG API",
        "CREATION_DATE": "2025-05-04T02:26:54",
        "ORIGINATOR": "18 SPCS",
        "OBJECT_NAME": "COSMOS 2564 (GLONASS)",
        "OBJECT_ID": "2022-161A",
        "CENTER_NAME": "EARTH",
        "REF_FRAME": "TEME",
        "TIME_SYSTEM": "UTC",
        "MEAN_ELEMENT_THEORY": "SGP4",
        "EPOCH": "2025-05-03T13:51:23.352768",
        "MEAN_MOTION": "2.13101982",
        "ECCENTRICITY": "0.00105630",
        "INCLINATION": "64.7366",
        "RA_OF_ASC_NODE": "206.3123",
        "ARG_OF_PERICENTER": "219.5408",
        "MEAN_ANOMALY": "140.4310",
        "EPHEMERIS_TYPE": "0",
        "CLASSIFICATION_TYPE": "U",
        "NORAD_CAT_ID": "54377",
        "ELEMENT_SET_NO": "999",
        "REV_AT_EPOCH": "1890",
        "BSTAR": "0.00000000000000",
        "MEAN_MOTION_DOT": "-0.00000017",
        "MEAN_MOTION_DDOT": "0.0000000000000",
        "SEMIMAJOR_AXIS": "25508.026",
        "PERIOD": "675.733",
        "APOAPSIS": "19156.835",
        "PERIAPSIS": "19102.947",
        "OBJECT_TYPE": "PAYLOAD",
        "RCS_SIZE": "LARGE",
        "COUNTRY_CODE": "CIS",
        "LAUNCH_DATE": "2022-11-28",
        "SITE": "PKMTR",
        "DECAY_DATE": null,
        "FILE": "4718307",
        "GP_ID": "286805401",
        "TLE_LINE0": "0 COSMOS 2564 (GLONASS)",
        "TLE_LINE1": "1 54377U 22161A   25123.57735362 -.00000017  00000-0  00000-0 0  9998",
        "TLE_LINE2": "2 54377  64.7366 206.3123 0010563 219.5408 140.4310  2.13101982 18909"
    }
]